GPS BIIA-23 (PRN 18)    
1 22877U 93068A   19145.42509747 -.00000060  00000-0  00000+0 0  9996
2 22877  54.6700  69.4857 0151478  79.5708 115.1623  2.00560612187413
GPS BIIR-2  (PRN 13)    
1 24876U 97035A   19145.05084679  .00000009  00000-0  00000+0 0  9998
2 24876  55.4596 199.3724 0033075  73.0907 287.3442  2.00564687160007
GPS BIIR-3  (PRN 11)    
1 25933U 99055A   19145.38899223 -.00000096  00000-0  00000+0 0  9999
2 25933  52.1110  46.8194 0164345 108.4303  62.5120  2.00559649143833
GPS BIIR-4  (PRN 20)    
1 26360U 00025A   19145.23052749  .00000039  00000-0  00000+0 0  9997
2 26360  53.3295 125.3952 0042514 137.5950 325.6912  2.00561406139510
GPS BIIR-5  (PRN 28)    
1 26407U 00040A   19144.65243258 -.00000052  00000-0  00000+0 0  9994
2 26407  56.2755 317.5126 0192378 275.9361 103.3887  2.00560664138189
GPS BIIR-6  (PRN 14)    
1 26605U 00071A   19145.40001183  .00000014  00000-0  00000+0 0  9998
2 26605  55.0341 196.8154 0108541 249.3406 221.7077  2.00560037135794
GPS BIIR-8  (PRN 16)    
1 27663U 03005A   19145.46425354 -.00000048  00000-0  00000+0 0  9997
2 27663  56.3355 317.2537 0106894  32.0347 334.1980  2.00575297119565
GPS BIIR-9  (PRN 21)    
1 27704U 03010A   19145.29058146 -.00000062  00000-0  00000+0 0  9997
2 27704  54.3449  68.9677 0248595 277.3685 287.4538  2.00556568118368
GPS BIIR-10 (PRN 22)    
1 28129U 03058A   19145.24321978  .00000041  00000-0  00000+0 0  9998
2 28129  53.1414 128.1836 0074565 282.6073  76.5470  2.00548660113056
GPS BIIR-11 (PRN 19)    
1 28190U 04009A   19145.17586134 -.00000100  00000-0  00000+0 0  9999
2 28190  56.2637  18.0436 0093765  80.4182 231.1153  2.00568639111239
GPS BIIR-12 (PRN 23)    
1 28361U 04023A   19145.35973625  .00000020  00000-0  00000+0 0  9990
2 28361  54.0485 191.2082 0134133 231.2782 126.8733  2.00574075109315
GPS BIIR-13 (PRN 02)    
1 28474U 04045A   19145.11382904 -.00000062  00000-0  00000+0 0  9994
2 28474  54.7028  68.7178 0191397 260.4751 281.0290  2.00559007106675
GPS BIIRM-1 (PRN 17)    
1 28874U 05038A   19145.43138885 -.00000098  00000-0  00000+0 0  9992
2 28874  56.3878  15.3832 0130552 262.1308 253.9149  2.00555848100087
GPS BIIRM-2 (PRN 31)    
1 29486U 06042A   19145.38272649 -.00000037  00000-0  00000+0 0  9992
2 29486  55.0081 253.9543 0091973 358.8944  45.0073  2.00570231 92809
GPS BIIRM-3 (PRN 12)    
1 29601U 06052A   19144.77060270 -.00000050  00000-0  00000+0 0  9994
2 29601  56.3158 316.1974 0074384  61.2812 299.4591  2.00567873 91709
GPS BIIRM-4 (PRN 15)    
1 32260U 07047A   19145.08187615  .00000021  00000-0  00000+0 0  9999
2 32260  53.1719 186.9294 0111491  43.5750 317.3680  2.00561159 85089
GPS BIIRM-5 (PRN 29)    
1 32384U 07062A   19145.31194497 -.00000098  00000-0  00000+0 0  9990
2 32384  56.4715  16.0260 0008530  98.6918 203.2952  2.00555262 83823
GPS BIIRM-6 (PRN 07)    
1 32711U 08012A   19145.48663670 -.00000038  00000-0  00000+0 0  9996
2 32711  54.7476 253.1455 0128878 219.5722 139.5021  2.00554586 82013
GPS BIIRM-8 (PRN 05)    
1 35752U 09043A   19144.95837469  .00000044  00000-0  00000+0 0  9995
2 35752  54.4237 130.8402 0054975  38.7846 324.6642  2.00561240 71581
GPS BIIF-1  (PRN 25)    
1 36585U 10022A   19145.56123792 -.00000047  00000-0  00000+0 0  9998
2 36585  55.5953 312.4828 0082624  50.4381 130.7836  2.00559691 65840
GPS BIIF-2  (PRN 01)    
1 37753U 11036A   19145.43290281 -.00000053  00000-0  00000+0 0  9993
2 37753  55.9006  72.6405 0087019  39.3376 136.5518  2.00566305 57538
GPS BIIF-3  (PRN 24)    
1 38833U 12053A   19145.17661191 -.00000036  00000-0  00000+0 0  9997
2 38833  53.7824 249.3818 0081764  33.4444 327.0945  2.00558300 48587
GPS BIIF-4  (PRN 27)    
1 39166U 13023A   19145.03607488 -.00000098  00000-0  00000+0 0  9997
2 39166  56.0705  12.1811 0070042  26.4536 333.9467  2.00567816 44124
GPS BIIF-5  (PRN 30)    
1 39533U 14008A   19145.52813375 -.00000039  00000-0  00000+0 0  9992
2 39533  53.9141 254.7598 0040888 193.2550 166.6561  2.00573368 38490
GPS BIIF-6  (PRN 06)    
1 39741U 14026A   19145.31571138 -.00000054  00000-0  00000+0 0  9995
2 39741  55.8803  72.1708 0017552 294.5304  65.2813  2.00574062 36771
GPS BIIF-7  (PRN 09)    
1 40105U 14045A   19144.90881779  .00000017  00000-0  00000+0 0  9999
2 40105  54.5750 191.5179 0009978 103.2445 256.9368  2.00563584 35216
GPS BIIF-8  (PRN 03)    
1 40294U 14068A   19145.27308302  .00000050  00000-0  00000+0 0  9997
2 40294  55.1757 132.3638 0020601  28.2469 331.8568  2.00550663 33442
GPS BIIF-9  (PRN 26)    
1 40534U 15013A   19144.41841700 -.00000052  00000-0  00000+0 0  9997
2 40534  54.5242 310.8948 0037029   6.4208 353.6150  2.00571298 30497
GPS BIIF-10  (PRN 08)   
1 40730U 15033A   19144.07944811 -.00000101  00000-0  00000+0 0  9991
2 40730  55.5954  11.5698 0044672 344.0080  15.8947  2.00556058 28242
GPS BIIF-11  (PRN 10)   
1 41019U 15062A   19145.12476841  .00000049  00000-0  00000+0 0  9994
2 41019  55.1770 132.1845 0046673 208.2820 151.4562  2.00564798 26085
GPS BIIF-12  (PRN 32)   
1 41328U 16007A   19145.22017884  .00000019  00000-0  00000+0 0  9993
2 41328  54.8190 191.8889 0032143 220.0178 139.8146  2.00573187 24140
